ONEWEB-0393             
1 50473U 21132E   23287.77806355  .00000073  00000+0  15582-3 0  9994
2 50473  87.9261 199.8815 0001518  69.2793 290.8501 13.17650651 89520
ONEWEB-0394             
1 50474U 21132F   23287.94665376  .00000069  00000+0  14195-3 0  9994
2 50474  87.9274 169.6264 0001673  80.1611 279.9709 13.18686442 92936
ONEWEB-0395             
1 50475U 21132G   23287.87393664  .00000470  00000+0  12904-2 0  9996
2 50475  87.8991 215.0476 0001600  82.7168 277.4142 13.11415205 87756
ONEWEB-0396             
1 50476U 21132H   23287.94032204 -.00000267  00000+0 -70887-3 0  9996
2 50476  87.9274 169.6191 0001781  83.4164 276.7171 13.18684669 92977
ONEWEB-0397             
1 50477U 21132J   23287.65157747  .00000015  00000+0  41897-5 0  9995
2 50477  87.9275 169.6776 0001766  85.8798 274.2536 13.18686124 92910
ONEWEB-0398             
1 50478U 21132K   23287.84146534 -.00000357  00000+0 -10443-2 0  9990
2 50478  87.8989 215.0468 0001304  72.3767 287.7503 13.11413171 87641
ONEWEB-0399             
1 50479U 21132L   23287.82686753 -.00000562  00000+0 -16211-2 0  9998
2 50479  87.8990 215.0600 0002235  80.7876 279.3504 13.11417330 87638
ONEWEB-0400             
1 50480U 21132M   23287.93399434  .00000070  00000+0  14360-3 0  9995
2 50480  87.9202 169.6342 0001481  69.0235 291.1056 13.18690673 92949
